COMMENT,ORIGINATOR,NORAD_CAT_ID,OBJECT_NAME,OBJECT_TYPE,CLASSIFICATION_TYPE,INTLDES,EPOCH,EPOCH_MICROSECONDS,MEAN_MOTION,ECCENTRICITY,INCLINATION,RA_OF_ASC_NODE,ARG_OF_PERICENTER,MEAN_ANOMALY,EPHEMERIS_TYPE,ELEMENT_SET_NO,REV_AT_EPOCH,BSTAR,MEAN_MOTION_DOT,MEAN_MOTION_DDOT,FILE,TLE_LINE0,TLE_LINE1,TLE_LINE2,OBJECT_ID,OBJECT_NUMBER,SEMIMAJOR_AXIS,PERIOD,APOGEE,PERIGEE
"GENERATED VIA SPACETRACK.ORG API","JSPOC","40022","PACE","PAYLOAD","U","14033N","2016-01-12 04:20:30","286176","14.87572361","0.0012658","97.941","277.6737","216.7834","143.2515","0","999","8484","0.0001075","9.21e-06","0","1979301","0 PACE","1 40022U 14033N   16012.18090609  .00000921  00000-0  10750-3 0  9990","2 40022  97.9410 277.6737 0012658 216.7834 143.2515 14.87572361 84841","2014-033N","40022","6983.660","96.802","614.365","596.685"
"GENERATED VIA SPACETRACK.ORG API","JSPOC","5907","SL-8 R/B","ROCKET BODY","U","72019B","2016-01-12 04:20:43","539072","13.22179835","0.0020236","82.9727","285.4144","196.5875","317.9955","0","999","11317","9.3761e-05","5.2e-07","0","1979246","0 SL-8 R/B","1 05907U 72019B   16012.18105948  .00000052  00000-0  93761-4 0  9993","2 05907  82.9727 285.4144 0020236 196.5875 317.9955 13.22179835113173","1972-019B","5907","7554.542","108.911","1191.694","1161.119"
"GENERATED VIA SPACETRACK.ORG API","JSPOC","24955","SL-8 R/B","ROCKET BODY","U","97052C","2016-01-12 04:20:55","128768","13.81483184","0.0030027","82.9233","303.8648","161.7098","311.1967","0","999","92267","3.2912e-05","5.1e-07","0","1979228","0 SL-8 R/B","1 24955U 97052C   16012.18119362  .00000051  00000-0  32912-4 0  9996","2 24955  82.9233 303.8648 0030027 161.7098 311.1967 13.81483184922675","1997-052C","24955","7336.767","104.235","980.662","936.602"
"GENERATED VIA SPACETRACK.ORG API","JSPOC","22782","METEOR 2-21","PAYLOAD","U","93055A","2016-01-12 04:21:02","661984","13.83782966","0.0023751","82.5486","77.8384","95.1312","283.6126","0","999","12950","-2.6817e-05","-1.5e-07","0","1979253","0 METEOR 2-21","1 22782U 93055A   16012.18128081 -.00000015  00000-0 -26817-4 0  9998","2 22782  82.5486  77.8384 0023751  95.1312 283.6126 13.83782966129500","1993-055A","22782","7328.636","104.062","967.907","933.095"
"GENERATED VIA SPACETRACK.ORG API","JSPOC","40021","DUCHIFAT 1","PAYLOAD","U","14033M","2016-01-12 04:21:03","119040","14.88861057","0.0012311","97.9419","278.3252","214.5031","145.5387","0","999","8489","0.00016567","1.498e-05","0","1979301","0 DUCHIFAT 1","1 40021U 14033M   16012.18128610  .00001498  00000-0  16567-3 0  9995","2 40021  97.9419 278.3252 0012311 214.5031 145.5387 14.88861057 84891","2014-033M","40021","6979.629","96.718","610.087","592.902"
"GENERATED VIA SPACETRACK.ORG API","JSPOC","18794","SL-14 R/B","ROCKET BODY","U","88002G","2016-01-12 04:21:10","513152","12.55550175","0.0037948","82.6006","255.6883","4.0853","154.4067","0","999","28298","8.8089e-05","2.5e-07","0","1979240","0 SL-14 R/B","1 18794U 88002G   16012.18137168  .00000025  00000-0  88089-4 0  9996","2 18794  82.6006 255.6883 0037948   4.0853 154.4067 12.55550175282983","1988-002G","18794","7819.502","114.690","1471.041","1411.694"
"GENERATED VIA SPACETRACK.ORG API","JSPOC","8923","COSMOS 836","PAYLOAD","U","76061A","2016-01-12 04:21:15","3360","14.33007417","0.0018339","74.0542","89.987","194.2481","165.8156","0","999","6475","3.4846e-05","7e-07","0","1979225","0 COSMOS 836","1 08923U 76061A   16012.18142365  .00000070  00000-0  34846-4 0  9998","2 08923  74.0542  89.9870 0018339 194.2481 165.8156 14.33007417 64754","1976-061A","8923","7159.832","100.487","794.828","768.567"
"GENERATED VIA SPACETRACK.ORG API","JSPOC","26631","EROS A1","PAYLOAD","U","00079A","2016-01-12 04:21:23","463648","15.57947119","0.0003608","97.5454","116.414","331.5177","116.1959","0","999","83885","0.00080913","0.00060753","0","1979297","0 EROS A1","1 26631U 00079A   16012.18152157  .00060753  00000-0  80913-3 0  9999","2 26631  97.5454 116.4140 0003608 331.5177 116.1959 15.57947119838858","2000-079A","26631","6771.736","92.429","396.044","391.157"
"GENERATED VIA SPACETRACK.ORG API","JSPOC","14618","COSMOS 1529","PAYLOAD","U","84001H","2016-01-12 04:21:27","750816","12.44817286","0.0031514","74.0086","126.587","167.6581","273.2657","0","999","28179","5.6678e-05","-8e-08","0","1979288","0 COSMOS 1529","1 14618U 84001H   16012.18157119 -.00000008  00000-0  56678-4 0  9991","2 14618  74.0086 126.5870 0031514 167.6581 273.2657 12.44817286281796","1984-001H","14618","7864.385","115.679","1511.033","1461.466"
"GENERATED VIA SPACETRACK.ORG API","JSPOC","23773","COSMOS 2327","PAYLOAD","U","96004A","2016-01-12 04:21:28","778112","13.74444326","0.0049319","82.9822","48.1406","87.0402","334.804","0","999","260","2.1426e-05","3.6e-07","0","1979333","0 COSMOS 2327","1 23773U 96004A   16012.18158308  .00000036  00000-0  21426-4 0  9993","2 23773  82.9822  48.1406 0049319  87.0402 334.8040 13.74444326  2603","1996-004A","23773","7361.795","104.769","1019.967","947.352"
"GENERATED VIA SPACETRACK.ORG API","JSPOC","11765","COSMOS 1174","PAYLOAD","U","80030A","2016-01-12 04:21:33","468768","14.36958213","0.0567726","66.0887","276.8888","268.8436","84.76","0","999","83178","9.1799e-05","1.759e-05","0","1979262","0 COSMOS 1174","1 11765U 80030A   16012.18163737  .00001759  00000-0  91799-4 0  9998","2 11765  66.0887 276.8888 0567726 268.8436  84.7600 14.36958213831788","1980-030A","11765","7146.703","100.211","1174.305","362.831"
"GENERATED VIA SPACETRACK.ORG API","JSPOC","6148","COSMOS 514","PAYLOAD","U","72062A","2016-01-12 04:21:46","840896","13.8174441","0.0011295","82.9675","260.5537","101.8971","8.8419","0","999","18774","4.2452e-05","6.1e-07","0","1979334","0 COSMOS 514","1 06148U 72062A   16012.18179214  .00000061  00000-0  42452-4 0  9997","2 06148  82.9675 260.5537 0011295 101.8971   8.8419 13.81744410187741","1972-062A","6148","7335.843","104.216","965.993","949.422"
"GENERATED VIA SPACETRACK.ORG API","JSPOC","28414","SJ-6B","PAYLOAD","U","04035B","2016-01-12 04:22:05","819520","14.9373887","0.0005026","97.8239","21.3636","314.7312","45.3499","0","999","61730","0.00010649","1.07e-05","0","1979241","0 SJ-6B","1 28414U 04035B   16012.18201180  .00001070  00000-0  10649-3 0  9993","2 28414  97.8239  21.3636 0005026 314.7312  45.3499 14.93738870617305","2004-035B","28414","6964.426","96.402","589.792","582.791"
"GENERATED VIA SPACETRACK.ORG API","JSPOC","15206","DELTA 1 R/B(2)","ROCKET BODY","U","84088F","2016-01-12 04:22:28","501248","1.58300457","0.7750716","27.5935","270.5714","302.3901","122.1185","0","999","18033","0.0038618","1.24e-06","0","1979283","0 DELTA 1 R/B(2)","1 15206U 84088F   16012.18227432  .00000124  00000-0  38618-2 0  9996","2 15206  27.5935 270.5714 7750716 302.3901 122.1185  1.58300457180332","1984-088F","15206","31099.045","909.662","48824.897","616.923"
"GENERATED VIA SPACETRACK.ORG API","JSPOC","40018","APRIZESAT 9","PAYLOAD","U","14033J","2016-01-12 04:22:39","197568","14.6964209","0.0071787","97.9153","261.4958","176.8342","183.3333","0","999","8381","3.7578e-05","1.81e-06","0","1979302","0 APRIZESAT 9","1 40018U 14033J   16012.18239812  .00000181  00000-0  37578-4 0  9992","2 40018  97.9153 261.4958 0071787 176.8342 183.3333 14.69642090 83810","2014-033J","40018","7040.347","97.983","712.753","611.672"
"GENERATED VIA SPACETRACK.ORG API","JSPOC","29710","CARTOSAT 2AT","PAYLOAD","U","07001B","2016-01-12 04:22:42","573216","14.78649477","0.0002342","97.9987","72.7882","55.5688","304.576","0","999","48605","6.9344e-06","-1e-08","0","1979308","0 CARTOSAT 2AT","1 29710U 07001B   16012.18243719 -.00000001  00000-0  69344-5 0  9995","2 29710  97.9987  72.7882 0002342  55.5688 304.5760 14.78649477486057","2007-001B","29710","7011.727","97.386","635.234","631.950"
"GENERATED VIA SPACETRACK.ORG API","JSPOC","40015","HODOYOSHI 3","PAYLOAD","U","14033F","2016-01-12 04:22:53","143392","14.77926843","0.0037655","97.9298","269.2304","163.119","197.1284","0","999","8436","6.3935e-05","4.13e-06","0","1979300","0 HODOYOSHI 3","1 40015U 14033F   16012.18255953  .00000413  00000-0  63935-4 0  9997","2 40015  97.9298 269.2304 0037655 163.1190 197.1284 14.77926843 84363","2014-033F","40015","7014.012","97.433","662.288","609.466"
"GENERATED VIA SPACETRACK.ORG API","JSPOC","5581","BLACK ARROW R/B","ROCKET BODY","U","71093B","2016-01-12 04:23:43","383264","13.92553503","0.0536197","82.0398","31.1118","347.1085","11.6799","0","999","21606","0.00019177","8.43e-06","0","1979290","0 BLACK ARROW R/B","1 05581U 71093B   16012.18314101  .00000843  00000-0  19177-3 0  9991","2 05581  82.0398  31.1118 0536197 347.1085  11.6799 13.92553503216069","1971-093B","5581","7297.832","103.407","1311.005","528.390"
"GENERATED VIA SPACETRACK.ORG API","JSPOC","32786","IMS-1","PAYLOAD","U","08021D","2016-01-12 04:23:46","461696","14.84100416","0.0013174","97.6361","43.7432","124.8942","235.3513","0","999","41662","9.6298e-05","7.54e-06","0","1979277","0 IMS-1","1 32786U 08021D   16012.18317664  .00000754  00000-0  96298-4 0  9997","2 32786  97.6361  43.7432 0013174 124.8942 235.3513 14.84100416416629","2008-021D","32786","6994.547","97.028","625.627","607.198"
"GENERATED VIA SPACETRACK.ORG API","JSPOC","2826","OPS 5712 (P/L 160)","PAYLOAD","U","67053A","2016-01-12 04:23:52","769760","14.4696077","0.0003895","69.9292","20.7003","348.0009","12.1029","0","999","51314","0.00036071","1.251e-05","0","1979334","0 OPS 5712 (P/L 160)","1 02826U 67053A   16012.18324965  .00001251  00000-0  36071-3 0  9996","2 02826  69.9292  20.7003 0003895 348.0009  12.1029 14.46960770513141","1967-053A","2826","7113.729","99.518","738.365","732.823"
